TYVAK-182A              
1 48271U 21034D   26068.71131789  .00007163  00000+0  50673-3 0  9991
2 48271  97.5843 129.3711 0004862 316.5650  43.5193 15.05150420264864
STARLINK-35050          
1 65440U 25194G   26068.56939296  .00011415  00000+0  79353-3 0  9992
2 65440  97.6015 284.3372 0001438  68.2557 291.8822 15.05673487 29635
